[{"OBJECT_NAME":"HAWK-7C","OBJECT_ID":"2023-054Y","EPOCH":"2026-03-09T16:32:02.440032","MEAN_MOTION":15.26207266,"ECCENTRICITY":0.00036507,"INCLINATION":97.2829,"RA_OF_ASC_NODE":317.5849,"ARG_OF_PERICENTER":52.209,"MEAN_ANOMALY":307.9479,"EPHEMERIS_TYPE":0,"CLASSIFICATION_TYPE":"U","NORAD_CAT_ID":56200,"ELEMENT_SET_NO":999,"REV_AT_EPOCH":16184,"BSTAR":0.0003098019,"MEAN_MOTION_DOT":7.947e-5,"MEAN_MOTION_DDOT":0},{"OBJECT_NAME":"STARLINK-35707","OBJECT_ID":"2025-265T","EPOCH":"2026-03-09T22:52:31.893888","MEAN_MOTION":15.27597655,"ECCENTRICITY":0.00023383,"INCLINATION":43.0035,"RA_OF_ASC_NODE":276.451,"ARG_OF_PERICENTER":244.6941,"MEAN_ANOMALY":115.3669,"EPHEMERIS_TYPE":0,"CLASSIFICATION_TYPE":"U","NORAD_CAT_ID":66533,"ELEMENT_SET_NO":999,"REV_AT_EPOCH":1715,"BSTAR":0.0012111947,"MEAN_MOTION_DOT":0.00033237,"MEAN_MOTION_DDOT":0}]
